{"type":"FeatureCollection","features":[{"type":"Feature","properties":{"gu":"상당구","name":"낭성면"},"geometry":{"type":"MultiPolygon","coordinates":[[[[127.5856,36.6837],[127.5859,36.6827],[127.5869,36.6818],[127.5954,36.6779],[127.5978,36.6756],[127.5969,36.67],[127.5976,36.6673],[127.5993,36.6661],[127.6002,36.6647],[127.6011,36.6602],[127.6042,36.6585],[127.6028,36.6564],[127.6033,36.6547],[127.6096,36.6485],[127.6124,36.6479],[127.6178,36.6485],[127.6229,36.6458],[127.6249,36.6457],[127.6278,36.6434],[127.6326,36.6419],[127.6329,36.6409],[127.634,36.6399],[127.6367,36.6392],[127.6385,36.6375],[127.6405,36.6343],[127.6466,36.6278],[127.6458,36.6238],[127.6445,36.6222],[127.6445,36.6211],[127.646,36.6166],[127.6489,36.6166],[127.649,36.6155],[127.6479,36.6118],[127.646,36.6089],[127.6463,36.6066],[127.6436,36.6053],[127.6418,36.6034],[127.6412,36.6019],[127.6383,36.6004],[127.6362,36.6002],[127.6349,36.5994],[127.6308,36.5934],[127.6307,36.5919],[127.6325,36.5896],[127.6306,36.5867],[127.6225,36.5816],[127.622,36.5809],[127.6221,36.5791],[127.6216,36.5787],[127.6177,36.5778],[127.6146,36.5737],[127.6103,36.5767],[127.6081,36.5772],[127.6073,36.5782],[127.6074,36.5801],[127.6087,36.5809],[127.6056,36.5841],[127.6032,36.5858],[127.5952,36.5836],[127.5908,36.5856],[127.5837,36.5829],[127.5834,36.5832],[127.5822,36.5869],[127.5847,36.5894],[127.5852,36.5912],[127.5845,36.5943],[127.5854,36.596],[127.5857,36.5989],[127.5836,36.6059],[127.5822,36.6086],[127.5796,36.6122],[127.5758,36.6144],[127.5765,36.6167],[127.574,36.62],[127.5722,36.6203],[127.569,36.6219],[127.5682,36.6231],[127.5639,36.6235],[127.5609,36.6248],[127.5577,36.6273],[127.5564,36.6306],[127.5571,36.6308],[127.5585,36.6324],[127.5568,36.6345],[127.5567,36.6364],[127.5573,36.6374],[127.557,36.641],[127.5555,36.6454],[127.5548,36.6463],[127.5531,36.6477],[127.5503,36.6487],[127.5473,36.6477],[127.5453,36.6476],[127.5448,36.6507],[127.5479,36.6536],[127.5496,36.6582],[127.5535,36.6627],[127.5536,36.6644],[127.5427,36.6688],[127.5471,36.6715],[127.5492,36.6744],[127.5503,36.6731],[127.5517,36.6728],[127.5555,36.674],[127.5669,36.6743],[127.5704,36.6776],[127.5794,36.6844],[127.5823,36.6849],[127.5856,36.6837]]]]}},{"type":"Feature","properties":{"gu":"상당구","name":"미원면"},"geometry":{"type":"MultiPolygon","coordinates":[[[[127.7289,36.6826],[127.7284,36.6824],[127.7271,36.6805],[127.7262,36.6769],[127.7242,36.6742],[127.7182,36.6702],[127.717,36.6701],[127.7129,36.6681],[127.7118,36.6651],[127.7122,36.6638],[127.7142,36.6611],[127.7116,36.6607],[127.712,36.6576],[127.709,36.6545],[127.712,36.6509],[127.7133,36.6507],[127.7153,36.6518],[127.7197,36.6522],[127.7236,36.6514],[127.7244,36.6496],[127.7247,36.6457],[127.7299,36.6436],[127.7343,36.6394],[127.7388,36.6395],[127.7386,36.638],[127.7391,36.6358],[127.7408,36.6335],[127.7412,36.6323],[127.7411,36.6297],[127.742,36.6286],[127.7489,36.6265],[127.7496,36.6255],[127.7504,36.6216],[127.7593,36.6169],[127.7641,36.6132],[127.7698,36.6041],[127.7689,36.6033],[127.7696,36.6006],[127.769,36.5934],[127.7636,36.5911],[127.7553,36.5902],[127.7521,36.5885],[127.7505,36.587],[127.7468,36.5855],[127.7456,36.5856],[127.7428,36.5881],[127.7421,36.5889],[127.7422,36.5904],[127.7414,36.5914],[127.7371,36.5926],[127.7357,36.5954],[127.7375,36.5968],[127.7375,36.5991],[127.737,36.5998],[127.7287,36.6023],[127.7271,36.6009],[127.7203,36.6027],[127.7139,36.6019],[127.7114,36.5985],[127.7114,36.5977],[127.7094,36.5961],[127.7052,36.5952],[127.7029,36.5931],[127.7028,36.5918],[127.7017,36.5909],[127.6979,36.5892],[127.6946,36.5886],[127.692,36.5891],[127.6873,36.5919],[127.6814,36.5919],[127.6805,36.5923],[127.6793,36.5948],[127.6795,36.5958],[127.6701,36.5979],[127.6658,36.6004],[127.665,36.6025],[127.6603,36.6028],[127.6591,36.6014],[127.6553,36.6003],[127.6537,36.6005],[127.6531,36.6009],[127.652,36.6049],[127.6476,36.6056],[127.6463,36.6066],[127.646,36.6089],[127.6479,36.6118],[127.649,36.6155],[127.6489,36.6166],[127.646,36.6166],[127.6445,36.6211],[127.6445,36.6222],[127.6458,36.6238],[127.6466,36.6278],[127.6405,36.6343],[127.6385,36.6375],[127.6367,36.6392],[127.634,36.6399],[127.6329,36.6409],[127.6326,36.6419],[127.6278,36.6434],[127.6249,36.6457],[127.6229,36.6458],[127.6178,36.6485],[127.6124,36.6479],[127.6096,36.6485],[127.6033,36.6547],[127.6028,36.6564],[127.6042,36.6585],[127.6011,36.6602],[127.6002,36.6647],[127.5993,36.6661],[127.5976,36.6673],[127.5969,36.67],[127.5978,36.6756],[127.5954,36.6779],[127.5869,36.6818],[127.5859,36.6827],[127.5856,36.6837],[127.5866,36.6857],[127.5891,36.6877],[127.5908,36.6877],[127.592,36.6886],[127.5924,36.69],[127.592,36.6909],[127.5976,36.6978],[127.6005,36.6989],[127.602,36.6981],[127.6055,36.6982],[127.6067,36.6993],[127.6123,36.7001],[127.6145,36.7029],[127.6147,36.7051],[127.6172,36.7075],[127.6188,36.7074],[127.6228,36.7049],[127.6246,36.7064],[127.6269,36.7075],[127.6351,36.7087],[127.6384,36.7076],[127.6413,36.7055],[127.6416,36.704],[127.6425,36.7026],[127.6478,36.7012],[127.6507,36.702],[127.6553,36.7047],[127.6563,36.7059],[127.6563,36.7068],[127.6616,36.7143],[127.6622,36.7169],[127.6616,36.7192],[127.6618,36.7226],[127.6649,36.7298],[127.6661,36.7292],[127.6722,36.7221],[127.6787,36.7189],[127.6808,36.7192],[127.6833,36.7204],[127.6863,36.7208],[127.6878,36.7195],[127.689,36.7155],[127.6922,36.7125],[127.6967,36.7105],[127.6997,36.7106],[127.7022,36.7098],[127.703,36.7087],[127.7026,36.7035],[127.7037,36.702],[127.7058,36.7004],[127.7073,36.701],[127.7087,36.7001],[127.7137,36.6952],[127.7135,36.6901],[127.719,36.6876],[127.7226,36.6847],[127.7233,36.6832],[127.7289,36.6826]]]]}},{"type":"Feature","properties":{"gu":"상당구","name":"가덕면"},"geometry":{"type":"MultiPolygon","coordinates":[[[[127.6146,36.5737],[127.6114,36.5701],[127.6114,36.5668],[127.6129,36.5643],[127.6161,36.5609],[127.6166,36.5593],[127.6141,36.5568],[127.6134,36.5551],[127.6135,36.5537],[127.6121,36.5514],[127.6032,36.5479],[127.5988,36.5482],[127.5909,36.5434],[127.5878,36.5439],[127.581,36.5421],[127.5802,36.541],[127.5805,36.5389],[127.5797,36.538],[127.5774,36.5378],[127.5709,36.5357],[127.5698,36.5348],[127.5694,36.5336],[127.567,36.5316],[127.5652,36.5305],[127.5633,36.5304],[127.5587,36.5274],[127.5568,36.5275],[127.5531,36.53],[127.5513,36.5301],[127.5492,36.5292],[127.547,36.527],[127.5417,36.5249],[127.538,36.5241],[127.5372,36.5245],[127.5357,36.5267],[127.5346,36.527],[127.5318,36.526],[127.5249,36.5193],[127.5187,36.5194],[127.5184,36.5223],[127.5162,36.5222],[127.5125,36.5208],[127.5073,36.5253],[127.5045,36.5322],[127.5043,36.5367],[127.5052,36.5375],[127.5065,36.538],[127.5071,36.5398],[127.5062,36.5424],[127.5086,36.5429],[127.5068,36.5475],[127.5047,36.5506],[127.5055,36.553],[127.5065,36.5537],[127.5097,36.5549],[127.5106,36.555],[127.5116,36.5542],[127.5178,36.5551],[127.5192,36.555],[127.5214,36.5536],[127.521,36.5574],[127.5238,36.5582],[127.5247,36.5604],[127.5259,36.561],[127.5291,36.5594],[127.5299,36.558],[127.5305,36.5532],[127.5333,36.5527],[127.5434,36.5543],[127.5466,36.5551],[127.5477,36.5561],[127.5485,36.5585],[127.5474,36.5624],[127.5478,36.5635],[127.5504,36.5656],[127.5532,36.565],[127.5548,36.5638],[127.5617,36.565],[127.5632,36.5701],[127.5661,36.5742],[127.5671,36.5786],[127.5671,36.5808],[127.5627,36.5807],[127.5625,36.5926],[127.5602,36.5933],[127.5592,36.5964],[127.5598,36.5973],[127.5575,36.6011],[127.5536,36.6033],[127.5507,36.6037],[127.5474,36.6051],[127.5467,36.6056],[127.5463,36.6071],[127.5476,36.6087],[127.5505,36.6151],[127.5533,36.6172],[127.5559,36.6248],[127.5582,36.6268],[127.5609,36.6248],[127.5639,36.6235],[127.5682,36.6231],[127.569,36.6219],[127.5722,36.6203],[127.574,36.62],[127.5765,36.6167],[127.5758,36.6144],[127.5796,36.6122],[127.5822,36.6086],[127.5836,36.6059],[127.5857,36.5989],[127.5854,36.596],[127.5845,36.5943],[127.5852,36.5912],[127.5847,36.5894],[127.5822,36.5869],[127.5829,36.5841],[127.5837,36.5829],[127.5908,36.5856],[127.5952,36.5836],[127.6032,36.5858],[127.6056,36.5841],[127.6087,36.5809],[127.6074,36.5801],[127.6073,36.5782],[127.6081,36.5772],[127.6103,36.5767],[127.6146,36.5737]]]]}},{"type":"Feature","properties":{"gu":"상당구","name":"남일면"},"geometry":{"type":"MultiPolygon","coordinates":[[[[127.5047,36.5506],[127.5036,36.5526],[127.5015,36.5522],[127.5002,36.5516],[127.4922,36.5445],[127.4873,36.5453],[127.4855,36.5463],[127.4858,36.5477],[127.484,36.5518],[127.4813,36.5547],[127.4804,36.5547],[127.4795,36.5568],[127.4816,36.5612],[127.4813,36.5615],[127.475,36.5627],[127.4721,36.5609],[127.4685,36.5613],[127.4672,36.562],[127.468,36.5711],[127.4707,36.577],[127.4728,36.5782],[127.4741,36.581],[127.4774,36.5811],[127.4824,36.5828],[127.4863,36.5822],[127.4885,36.5813],[127.4996,36.5875],[127.5002,36.5875],[127.501,36.586],[127.5036,36.5875],[127.5035,36.5891],[127.5044,36.59],[127.5069,36.5902],[127.5104,36.5919],[127.5192,36.5938],[127.5207,36.5956],[127.5222,36.5999],[127.524,36.6018],[127.53,36.6017],[127.5366,36.6026],[127.5415,36.5982],[127.5431,36.6012],[127.5467,36.6056],[127.5507,36.6037],[127.5536,36.6033],[127.5575,36.6011],[127.5598,36.5973],[127.5592,36.5964],[127.5602,36.5933],[127.5625,36.5926],[127.5627,36.5807],[127.5671,36.5808],[127.5671,36.5786],[127.5661,36.5742],[127.5632,36.5701],[127.5617,36.565],[127.5548,36.5638],[127.5532,36.565],[127.5504,36.5656],[127.5478,36.5635],[127.5474,36.5624],[127.5485,36.5585],[127.5477,36.5561],[127.5466,36.5551],[127.5434,36.5543],[127.5333,36.5527],[127.5305,36.5532],[127.5299,36.558],[127.5291,36.5594],[127.5259,36.561],[127.5247,36.5604],[127.5238,36.5582],[127.521,36.5574],[127.5214,36.5536],[127.5192,36.555],[127.5116,36.5542],[127.5106,36.555],[127.5097,36.5549],[127.5058,36.5533],[127.5047,36.5506]]]]}},{"type":"Feature","properties":{"gu":"상당구","name":"문의면"},"geometry":{"type":"MultiPolygon","coordinates":[[[[127.5047,36.5506],[127.5068,36.5475],[127.5086,36.5429],[127.5062,36.5424],[127.5071,36.5398],[127.5065,36.538],[127.5052,36.5375],[127.5043,36.5367],[127.5045,36.5322],[127.5073,36.5253],[127.5125,36.5208],[127.5175,36.5225],[127.5184,36.5223],[127.5187,36.5194],[127.5249,36.5193],[127.5318,36.526],[127.5346,36.527],[127.5357,36.5267],[127.5372,36.5245],[127.538,36.5241],[127.5417,36.5249],[127.547,36.527],[127.5492,36.5292],[127.5513,36.5301],[127.5531,36.53],[127.5568,36.5275],[127.5582,36.5274],[127.5639,36.5307],[127.5652,36.5305],[127.5659,36.5286],[127.5677,36.5263],[127.569,36.5214],[127.573,36.5164],[127.5734,36.5096],[127.5704,36.5037],[127.5701,36.4996],[127.5729,36.4931],[127.5761,36.4913],[127.5764,36.4905],[127.567,36.4841],[127.563,36.48],[127.5581,36.4721],[127.5562,36.4718],[127.5571,36.4696],[127.5556,36.4656],[127.5539,36.4631],[127.5533,36.4577],[127.5518,36.4551],[127.5494,36.4544],[127.5454,36.4493],[127.5459,36.4469],[127.5229,36.4389],[127.5199,36.4364],[127.5165,36.4285],[127.5145,36.4176],[127.51,36.4031],[127.5091,36.4052],[127.5041,36.4071],[127.5026,36.4082],[127.4977,36.419],[127.4892,36.4327],[127.4894,36.4344],[127.4922,36.4404],[127.4958,36.4438],[127.5007,36.447],[127.5026,36.4493],[127.5032,36.4519],[127.5027,36.454],[127.5013,36.4553],[127.4989,36.4557],[127.4927,36.4545],[127.4872,36.4547],[127.4823,36.456],[127.4793,36.4578],[127.4793,36.4601],[127.4845,36.4753],[127.4841,36.4776],[127.4834,36.4778],[127.4835,36.4795],[127.4819,36.4805],[127.4771,36.4813],[127.4759,36.4857],[127.4763,36.4904],[127.4759,36.4909],[127.4732,36.491],[127.4714,36.4905],[127.4677,36.491],[127.4665,36.4927],[127.461,36.495],[127.4589,36.4951],[127.4574,36.4965],[127.4568,36.4987],[127.4547,36.5007],[127.4499,36.5006],[127.4492,36.5055],[127.4471,36.5088],[127.446,36.5123],[127.4483,36.5127],[127.4521,36.515],[127.4533,36.5199],[127.4519,36.5236],[127.4545,36.5233],[127.4556,36.5255],[127.4547,36.5332],[127.4529,36.5354],[127.4531,36.5368],[127.4536,36.5372],[127.4517,36.5413],[127.4476,36.5414],[127.4471,36.5429],[127.4474,36.5477],[127.4493,36.5484],[127.4506,36.5474],[127.4526,36.5474],[127.455,36.5486],[127.457,36.549],[127.4587,36.5486],[127.4662,36.5443],[127.4693,36.5434],[127.4757,36.5452],[127.4796,36.5476],[127.4838,36.5462],[127.4846,36.5448],[127.4854,36.5454],[127.4855,36.5463],[127.4873,36.5453],[127.4922,36.5445],[127.5008,36.552],[127.5036,36.5526],[127.5047,36.5506]]]]}},{"type":"Feature","properties":{"gu":"상당구","name":"중앙동"},"geometry":{"type":"MultiPolygon","coordinates":[[[[127.5061,36.6501],[127.5061,36.6488],[127.5045,36.6455],[127.5009,36.6437],[127.5016,36.6399],[127.5006,36.6386],[127.4937,36.6364],[127.4922,36.6375],[127.4838,36.6365],[127.4836,36.641],[127.4825,36.6447],[127.4882,36.645],[127.4935,36.6475],[127.4974,36.6481],[127.5009,36.6472],[127.5051,36.6502],[127.5061,36.6501]]]]}},{"type":"Feature","properties":{"gu":"상당구","name":"성안동"},"geometry":{"type":"MultiPolygon","coordinates":[[[[127.4937,36.6364],[127.4935,36.6356],[127.4944,36.631],[127.4963,36.625],[127.4909,36.6247],[127.4847,36.6279],[127.4824,36.6297],[127.4819,36.6307],[127.4819,36.6324],[127.4838,36.6365],[127.4922,36.6375],[127.4937,36.6364]]]]}},{"type":"Feature","properties":{"gu":"상당구","name":"탑·대성동"},"geometry":{"type":"MultiPolygon","coordinates":[[[[127.5036,36.6317],[127.4987,36.6252],[127.4963,36.625],[127.4944,36.631],[127.4935,36.6356],[127.4937,36.6364],[127.4998,36.6383],[127.4995,36.6345],[127.5008,36.634],[127.5036,36.6321],[127.5036,36.6317]]]]}},{"type":"Feature","properties":{"gu":"상당구","name":"영운동"},"geometry":{"type":"MultiPolygon","coordinates":[[[[127.5095,36.6212],[127.5113,36.6207],[127.501,36.615],[127.4954,36.6149],[127.4946,36.6159],[127.4934,36.6201],[127.4933,36.6224],[127.4994,36.6229],[127.5049,36.6211],[127.5072,36.6215],[127.5095,36.6212]]]]}},{"type":"Feature","properties":{"gu":"상당구","name":"금천동"},"geometry":{"type":"MultiPolygon","coordinates":[[[[127.5095,36.6212],[127.5072,36.6215],[127.5049,36.6211],[127.4994,36.6229],[127.4933,36.6224],[127.4917,36.6244],[127.4987,36.6252],[127.5036,36.6317],[127.5063,36.6307],[127.5083,36.6326],[127.5118,36.6334],[127.5131,36.6299],[127.5148,36.6288],[127.5148,36.6275],[127.5135,36.6246],[127.5111,36.6226],[127.51,36.6225],[127.5095,36.6212]]]]}},{"type":"Feature","properties":{"gu":"상당구","name":"용담·명암·산성동"},"geometry":{"type":"MultiPolygon","coordinates":[[[[127.5427,36.6688],[127.5536,36.6644],[127.5535,36.6627],[127.5496,36.6582],[127.5479,36.6536],[127.5448,36.6507],[127.5453,36.6476],[127.5418,36.6458],[127.5376,36.6453],[127.5364,36.6462],[127.5341,36.646],[127.5332,36.6464],[127.5318,36.6484],[127.5294,36.6482],[127.5273,36.649],[127.5227,36.6457],[127.5223,36.6431],[127.516,36.6371],[127.5135,36.6336],[127.5083,36.6326],[127.5063,36.6307],[127.5036,36.6317],[127.5036,36.6321],[127.5008,36.634],[127.4995,36.6345],[127.4998,36.6383],[127.5012,36.6391],[127.5016,36.6399],[127.5009,36.6437],[127.5045,36.6455],[127.5061,36.6488],[127.5061,36.6501],[127.5084,36.6525],[127.5097,36.6532],[127.5143,36.6533],[127.5237,36.6577],[127.5247,36.6587],[127.525,36.6604],[127.5278,36.6625],[127.5316,36.6633],[127.5337,36.6646],[127.5327,36.6659],[127.5359,36.6688],[127.539,36.6692],[127.5427,36.6688]]]]}},{"type":"Feature","properties":{"gu":"상당구","name":"용암1동"},"geometry":{"type":"MultiPolygon","coordinates":[[[[127.5376,36.6453],[127.5369,36.6439],[127.5368,36.6413],[127.5391,36.6377],[127.5389,36.6348],[127.5407,36.6329],[127.5427,36.6283],[127.543,36.6257],[127.5422,36.6246],[127.5366,36.6199],[127.534,36.6202],[127.5309,36.619],[127.5309,36.6172],[127.5298,36.6152],[127.5289,36.6148],[127.5241,36.614],[127.5176,36.6101],[127.5123,36.6151],[127.5037,36.6068],[127.5009,36.6059],[127.498,36.606],[127.4977,36.6104],[127.4954,36.6149],[127.501,36.615],[127.5113,36.6207],[127.5095,36.6212],[127.51,36.6225],[127.5111,36.6226],[127.5135,36.6246],[127.5148,36.6275],[127.5148,36.6288],[127.5131,36.6299],[127.5118,36.6334],[127.5135,36.6336],[127.516,36.6371],[127.5223,36.6431],[127.5227,36.6457],[127.5273,36.649],[127.5294,36.6482],[127.5318,36.6484],[127.5332,36.6464],[127.5341,36.646],[127.5364,36.6462],[127.5376,36.6453]]]]}},{"type":"Feature","properties":{"gu":"상당구","name":"용암2동"},"geometry":{"type":"MultiPolygon","coordinates":[[[[127.5582,36.6268],[127.5559,36.6248],[127.5533,36.6172],[127.5505,36.6151],[127.5476,36.6087],[127.5463,36.6071],[127.5467,36.6056],[127.5431,36.6012],[127.5415,36.5982],[127.5366,36.6026],[127.53,36.6017],[127.524,36.6018],[127.5222,36.5999],[127.5207,36.5956],[127.5192,36.5938],[127.5104,36.5919],[127.5069,36.5902],[127.5044,36.59],[127.5035,36.5891],[127.5036,36.5875],[127.5007,36.5861],[127.4977,36.5926],[127.498,36.606],[127.5009,36.6059],[127.5037,36.6068],[127.5123,36.6151],[127.5176,36.6101],[127.5241,36.614],[127.5289,36.6148],[127.5298,36.6152],[127.5309,36.6172],[127.5309,36.619],[127.534,36.6202],[127.5366,36.6199],[127.5422,36.6246],[127.543,36.6257],[127.5427,36.6283],[127.5407,36.6329],[127.5389,36.6348],[127.5391,36.6377],[127.5368,36.6413],[127.5369,36.6439],[127.5376,36.6453],[127.5418,36.6458],[127.5453,36.6476],[127.5473,36.6477],[127.5498,36.6488],[127.5531,36.6477],[127.5548,36.6463],[127.5555,36.6454],[127.557,36.641],[127.5573,36.6374],[127.5567,36.6364],[127.5568,36.6345],[127.5585,36.6324],[127.5571,36.6308],[127.5564,36.6306],[127.5582,36.6268]]]]}},{"type":"Feature","properties":{"gu":"서원구","name":"남이면"},"geometry":{"type":"MultiPolygon","coordinates":[[[[127.4544,36.6016],[127.4578,36.6021],[127.4636,36.6016],[127.4722,36.5994],[127.4733,36.599],[127.4733,36.5962],[127.477,36.5944],[127.4772,36.5933],[127.476,36.5891],[127.4741,36.5844],[127.4741,36.581],[127.4728,36.5782],[127.4707,36.577],[127.468,36.5711],[127.4672,36.562],[127.4685,36.5613],[127.4721,36.5609],[127.475,36.5627],[127.4813,36.5615],[127.4816,36.5612],[127.4795,36.5568],[127.4804,36.5547],[127.4813,36.5547],[127.484,36.5518],[127.4858,36.5477],[127.4851,36.5449],[127.484,36.5452],[127.4838,36.5462],[127.4796,36.5476],[127.4757,36.5452],[127.4693,36.5434],[127.4662,36.5443],[127.4587,36.5486],[127.4559,36.5489],[127.4526,36.5474],[127.4513,36.5473],[127.4493,36.5484],[127.4474,36.5477],[127.4471,36.5429],[127.4476,36.5414],[127.4459,36.5406],[127.445,36.5392],[127.4454,36.5376],[127.4443,36.5355],[127.4396,36.5315],[127.436,36.5313],[127.4313,36.5293],[127.4293,36.5282],[127.4297,36.5279],[127.4284,36.5265],[127.4235,36.527],[127.4173,36.5258],[127.4105,36.5275],[127.4084,36.5272],[127.4056,36.5314],[127.405,36.5373],[127.4015,36.5415],[127.396,36.54],[127.3922,36.54],[127.3855,36.541],[127.3835,36.542],[127.3838,36.5447],[127.3831,36.5482],[127.3787,36.5499],[127.3785,36.5515],[127.3787,36.5524],[127.3795,36.5531],[127.3794,36.5537],[127.3757,36.5573],[127.3736,36.5578],[127.3726,36.5601],[127.3763,36.5607],[127.3766,36.562],[127.3762,36.5631],[127.3776,36.5693],[127.3852,36.5768],[127.3866,36.5773],[127.3889,36.5842],[127.3898,36.5853],[127.392,36.5858],[127.3982,36.5907],[127.4002,36.5937],[127.401,36.596],[127.4063,36.5983],[127.4072,36.6003],[127.4115,36.6046],[127.4139,36.6033],[127.4199,36.5979],[127.4233,36.6001],[127.4273,36.5995],[127.4341,36.5994],[127.4342,36.6015],[127.4354,36.602],[127.4391,36.6022],[127.4395,36.6042],[127.4409,36.6057],[127.442,36.6058],[127.4432,36.6022],[127.4434,36.5992],[127.4448,36.5973],[127.4484,36.5943],[127.4519,36.5963],[127.4547,36.5988],[127.4544,36.6016]]]]}},{"type":"Feature","properties":{"gu":"서원구","name":"현도면"},"geometry":{"type":"MultiPolygon","coordinates":[[[[127.4834,36.4778],[127.4792,36.4775],[127.4717,36.4747],[127.4683,36.4719],[127.4654,36.4679],[127.464,36.4638],[127.464,36.4566],[127.4605,36.4536],[127.4532,36.4501],[127.4486,36.4496],[127.4434,36.4505],[127.4421,36.4511],[127.4402,36.4535],[127.4363,36.4567],[127.4332,36.4572],[127.4263,36.4569],[127.4266,36.4553],[127.4246,36.4552],[127.4247,36.4564],[127.4191,36.4553],[127.4127,36.4548],[127.4058,36.4549],[127.4026,36.4557],[127.4013,36.4574],[127.4004,36.4613],[127.4006,36.4702],[127.4035,36.4761],[127.4042,36.4833],[127.4009,36.4874],[127.3957,36.4916],[127.3998,36.4933],[127.4088,36.4953],[127.4093,36.4989],[127.4078,36.5001],[127.4078,36.5028],[127.4092,36.5071],[127.4088,36.5096],[127.4068,36.5108],[127.406,36.5118],[127.4039,36.5171],[127.4002,36.519],[127.3976,36.5206],[127.3975,36.521],[127.4023,36.5235],[127.4044,36.5239],[127.4062,36.5236],[127.4088,36.5244],[127.4082,36.5261],[127.4086,36.5273],[127.4134,36.527],[127.4173,36.5258],[127.4235,36.527],[127.4284,36.5265],[127.4297,36.5279],[127.4293,36.5282],[127.4313,36.5293],[127.436,36.5313],[127.4396,36.5315],[127.4443,36.5355],[127.4454,36.5376],[127.445,36.5392],[127.4461,36.5408],[127.4476,36.5414],[127.4517,36.5413],[127.4536,36.5372],[127.4531,36.5368],[127.4529,36.5354],[127.4547,36.5332],[127.4556,36.5255],[127.4545,36.5233],[127.4519,36.5236],[127.4533,36.5199],[127.4521,36.515],[127.4483,36.5127],[127.446,36.5123],[127.4471,36.5088],[127.4492,36.5055],[127.4499,36.5006],[127.4547,36.5007],[127.4568,36.4987],[127.4574,36.4965],[127.4589,36.4951],[127.461,36.495],[127.4665,36.4927],[127.4677,36.491],[127.4714,36.4905],[127.4732,36.491],[127.4759,36.4909],[127.4763,36.4904],[127.4759,36.4857],[127.4771,36.4813],[127.4819,36.4805],[127.4835,36.4795],[127.4834,36.4778]]]]}},{"type":"Feature","properties":{"gu":"서원구","name":"사직1동"},"geometry":{"type":"MultiPolygon","coordinates":[[[[127.4825,36.6447],[127.4836,36.641],[127.4838,36.6365],[127.4749,36.6355],[127.4692,36.6355],[127.4689,36.6428],[127.4734,36.6428],[127.4814,36.6466],[127.4825,36.6447]]]]}},{"type":"Feature","properties":{"gu":"서원구","name":"사직2동"},"geometry":{"type":"MultiPolygon","coordinates":[[[[127.4831,36.6291],[127.4774,36.6302],[127.4686,36.6285],[127.4654,36.629],[127.4656,36.6308],[127.4676,36.6318],[127.4688,36.6337],[127.4692,36.6355],[127.4749,36.6355],[127.4838,36.6365],[127.4819,36.6324],[127.4819,36.6307],[127.4831,36.6291]]]]}},{"type":"Feature","properties":{"gu":"서원구","name":"사창동"},"geometry":{"type":"MultiPolygon","coordinates":[[[[127.4689,36.6399],[127.4693,36.6349],[127.4676,36.6318],[127.4656,36.6308],[127.4654,36.629],[127.4622,36.6291],[127.4615,36.6309],[127.4587,36.6324],[127.4558,36.6317],[127.4545,36.6326],[127.4563,36.6346],[127.4567,36.638],[127.4617,36.6394],[127.4636,36.6382],[127.4669,36.6378],[127.467,36.6399],[127.4689,36.6399]]]]}},{"type":"Feature","properties":{"gu":"서원구","name":"모충동"},"geometry":{"type":"MultiPolygon","coordinates":[[[[127.4831,36.6291],[127.4895,36.6253],[127.4917,36.6244],[127.4933,36.6224],[127.4934,36.6201],[127.4883,36.6203],[127.4842,36.6213],[127.4791,36.621],[127.4757,36.6228],[127.4717,36.6234],[127.4708,36.624],[127.4686,36.6285],[127.4774,36.6302],[127.4831,36.6291]]]]}},{"type":"Feature","properties":{"gu":"서원구","name":"산남동"},"geometry":{"type":"MultiPolygon","coordinates":[[[[127.4775,36.6139],[127.4817,36.6143],[127.4853,36.6126],[127.4845,36.6108],[127.478,36.6023],[127.4733,36.599],[127.4636,36.6016],[127.4578,36.6021],[127.4544,36.6016],[127.4537,36.6028],[127.4565,36.6068],[127.4586,36.608],[127.4605,36.614],[127.4645,36.6179],[127.4644,36.6189],[127.4672,36.6227],[127.4705,36.6161],[127.4731,36.6132],[127.4737,36.6127],[127.4748,36.6137],[127.4775,36.6139]]]]}},{"type":"Feature","properties":{"gu":"서원구","name":"분평동"},"geometry":{"type":"MultiPolygon","coordinates":[[[[127.4954,36.6149],[127.4977,36.6104],[127.4981,36.6016],[127.4977,36.5926],[127.4986,36.5901],[127.5002,36.5875],[127.4961,36.5858],[127.4885,36.5813],[127.4863,36.5822],[127.4824,36.5828],[127.4774,36.5811],[127.4741,36.581],[127.4741,36.5844],[127.4772,36.5933],[127.477,36.5944],[127.4733,36.5962],[127.4733,36.599],[127.478,36.6023],[127.4845,36.6108],[127.4853,36.6126],[127.4911,36.6134],[127.4925,36.614],[127.4946,36.6159],[127.4954,36.6149]]]]}},{"type":"Feature","properties":{"gu":"서원구","name":"수곡1동"},"geometry":{"type":"MultiPolygon","coordinates":[[[[127.4934,36.6201],[127.4946,36.6159],[127.492,36.6137],[127.4858,36.6126],[127.4817,36.6143],[127.4775,36.6139],[127.4783,36.6155],[127.4785,36.6198],[127.4791,36.621],[127.4842,36.6213],[127.4883,36.6203],[127.4934,36.6201]]]]}},{"type":"Feature","properties":{"gu":"서원구","name":"수곡2동"},"geometry":{"type":"MultiPolygon","coordinates":[[[[127.4791,36.621],[127.4785,36.6198],[127.4783,36.6155],[127.4777,36.6141],[127.4748,36.6137],[127.4737,36.6127],[127.4705,36.6161],[127.4672,36.6227],[127.4714,36.624],[127.4717,36.6234],[127.4757,36.6228],[127.4791,36.621]]]]}},{"type":"Feature","properties":{"gu":"서원구","name":"성화·개신·죽림동"},"geometry":{"type":"MultiPolygon","coordinates":[[[[127.4654,36.629],[127.4686,36.6285],[127.4708,36.624],[127.4672,36.6227],[127.4644,36.6189],[127.4645,36.6179],[127.4605,36.614],[127.4586,36.608],[127.4565,36.6068],[127.4537,36.6028],[127.4545,36.6015],[127.4547,36.5988],[127.4519,36.5963],[127.4484,36.5943],[127.4448,36.5973],[127.4433,36.5993],[127.4432,36.6022],[127.442,36.6058],[127.4409,36.6057],[127.4397,36.6044],[127.4393,36.6023],[127.4388,36.602],[127.4354,36.602],[127.4342,36.6015],[127.4338,36.6018],[127.4333,36.6028],[127.4342,36.6059],[127.4359,36.6064],[127.437,36.6083],[127.4368,36.6106],[127.4408,36.6128],[127.4443,36.6159],[127.4444,36.6216],[127.4432,36.6235],[127.4453,36.6245],[127.4472,36.6246],[127.4498,36.6263],[127.45,36.6294],[127.4511,36.631],[127.453,36.6326],[127.4545,36.6326],[127.4558,36.6317],[127.4587,36.6324],[127.4615,36.6309],[127.4622,36.6291],[127.4654,36.629]]]]}},{"type":"Feature","properties":{"gu":"흥덕구","name":"오송읍"},"geometry":{"type":"MultiPolygon","coordinates":[[[[127.3597,36.6356],[127.3554,36.6339],[127.3523,36.6306],[127.3511,36.6283],[127.3503,36.6262],[127.3513,36.624],[127.3496,36.6177],[127.3486,36.6116],[127.3467,36.609],[127.3448,36.6077],[127.3436,36.6055],[127.3445,36.6002],[127.344,36.5973],[127.3408,36.5959],[127.3368,36.5975],[127.3346,36.5972],[127.3329,36.5942],[127.3299,36.5924],[127.3238,36.5846],[127.3219,36.5827],[127.3206,36.5821],[127.3175,36.5821],[127.3081,36.5835],[127.3074,36.5838],[127.3067,36.5852],[127.3037,36.5857],[127.3027,36.5849],[127.3016,36.5821],[127.3011,36.5822],[127.2993,36.5864],[127.304,36.5901],[127.3045,36.595],[127.3068,36.5994],[127.3071,36.6015],[127.3062,36.6029],[127.3029,36.6053],[127.3012,36.6075],[127.3018,36.6121],[127.3009,36.6155],[127.2946,36.6207],[127.2913,36.6255],[127.2909,36.627],[127.2924,36.6358],[127.2889,36.6371],[127.285,36.6347],[127.2808,36.6344],[127.2792,36.6351],[127.2767,36.6385],[127.2773,36.6416],[127.2797,36.6408],[127.2804,36.6417],[127.2819,36.6459],[127.287,36.6542],[127.2933,36.6545],[127.3,36.6582],[127.3016,36.6601],[127.3013,36.6613],[127.3015,36.6641],[127.3041,36.6662],[127.3051,36.668],[127.3062,36.6669],[127.3094,36.6666],[127.316,36.6634],[127.3191,36.6608],[127.3203,36.6572],[127.3221,36.6565],[127.3245,36.6574],[127.3302,36.6633],[127.3317,36.6621],[127.3334,36.6583],[127.3343,36.6574],[127.3403,36.6563],[127.3435,36.6572],[127.3482,36.6602],[127.3491,36.6605],[127.35,36.6602],[127.3514,36.6585],[127.3523,36.6531],[127.351,36.6479],[127.3489,36.6463],[127.3482,36.643],[127.3513,36.642],[127.3537,36.6423],[127.3556,36.6419],[127.3573,36.6405],[127.3597,36.6356]]]]}},{"type":"Feature","properties":{"gu":"흥덕구","name":"강내면"},"geometry":{"type":"MultiPolygon","coordinates":[[[[127.3898,36.5853],[127.3882,36.583],[127.3866,36.5773],[127.3852,36.5768],[127.3776,36.5693],[127.3771,36.5674],[127.3771,36.5678],[127.3703,36.5665],[127.3675,36.5647],[127.3633,36.5642],[127.3611,36.5633],[127.3605,36.5623],[127.3585,36.5621],[127.3511,36.5623],[127.3501,36.5633],[127.3476,36.5642],[127.3432,36.5645],[127.3387,36.5626],[127.3374,36.5627],[127.3355,36.5677],[127.3364,36.5699],[127.3361,36.5705],[127.3303,36.575],[127.3262,36.5771],[127.3249,36.5789],[127.3249,36.5807],[127.3219,36.5827],[127.3299,36.5924],[127.3329,36.5942],[127.3346,36.5972],[127.3368,36.5975],[127.3408,36.5959],[127.344,36.5973],[127.3445,36.6002],[127.3436,36.6055],[127.3448,36.6077],[127.3467,36.609],[127.3486,36.6116],[127.3496,36.6177],[127.3513,36.624],[127.3503,36.6262],[127.3523,36.6306],[127.3554,36.6339],[127.3653,36.6373],[127.3709,36.6423],[127.3751,36.6446],[127.3768,36.6473],[127.3769,36.6519],[127.3789,36.6464],[127.3785,36.6453],[127.3818,36.6429],[127.3837,36.6426],[127.3847,36.6432],[127.3898,36.6383],[127.3904,36.6368],[127.3905,36.6331],[127.3894,36.631],[127.3913,36.6303],[127.3988,36.6296],[127.4012,36.6304],[127.4013,36.6314],[127.4033,36.6322],[127.4065,36.6324],[127.408,36.6297],[127.4004,36.6265],[127.3937,36.6262],[127.391,36.6255],[127.3898,36.6247],[127.388,36.6245],[127.3827,36.6255],[127.382,36.6266],[127.3826,36.6276],[127.3822,36.6285],[127.3805,36.629],[127.3736,36.6288],[127.3731,36.6279],[127.373,36.6252],[127.3751,36.6233],[127.3782,36.6169],[127.3783,36.6141],[127.3767,36.61],[127.3776,36.609],[127.3784,36.6068],[127.3773,36.6057],[127.376,36.606],[127.3728,36.6087],[127.3689,36.6077],[127.3684,36.6042],[127.3687,36.6009],[127.3665,36.5976],[127.3662,36.5944],[127.3711,36.5904],[127.3762,36.587],[127.3839,36.5879],[127.3847,36.5865],[127.3898,36.5853]]]]}},{"type":"Feature","properties":{"gu":"흥덕구","name":"옥산면"},"geometry":{"type":"MultiPolygon","coordinates":[[[[127.4283,36.683],[127.4213,36.6821],[127.4145,36.6796],[127.4092,36.6793],[127.405,36.6783],[127.4016,36.6788],[127.3997,36.6779],[127.3973,36.6746],[127.3955,36.6664],[127.3954,36.6631],[127.3946,36.6613],[127.3916,36.661],[127.388,36.6595],[127.3829,36.661],[127.38,36.6609],[127.3744,36.6585],[127.3747,36.6565],[127.3768,36.6553],[127.3773,36.6537],[127.3768,36.6473],[127.3757,36.6452],[127.3709,36.6423],[127.3653,36.6373],[127.3631,36.6363],[127.3597,36.6356],[127.3573,36.6405],[127.3556,36.6419],[127.3537,36.6423],[127.3513,36.642],[127.3482,36.643],[127.3489,36.6463],[127.351,36.6479],[127.3523,36.6531],[127.3514,36.6585],[127.35,36.6602],[127.3491,36.6605],[127.3482,36.6602],[127.3435,36.6572],[127.3403,36.6563],[127.3343,36.6574],[127.3334,36.6583],[127.3317,36.6621],[127.3302,36.6633],[127.3245,36.6574],[127.3221,36.6565],[127.3206,36.657],[127.3196,36.6586],[127.3191,36.6608],[127.316,36.6634],[127.3094,36.6666],[127.3062,36.6669],[127.3051,36.668],[127.306,36.6703],[127.3063,36.6755],[127.3075,36.678],[127.3076,36.6816],[127.3046,36.6849],[127.3023,36.6857],[127.2964,36.6857],[127.2919,36.687],[127.2899,36.6878],[127.2887,36.6894],[127.2856,36.6909],[127.2866,36.6924],[127.2919,36.6972],[127.2967,36.6978],[127.3029,36.7012],[127.3081,36.7049],[127.3068,36.708],[127.3077,36.7183],[127.3084,36.7213],[127.3111,36.7237],[127.3142,36.7237],[127.317,36.7248],[127.326,36.7232],[127.3316,36.7206],[127.3344,36.72],[127.3385,36.7199],[127.341,36.7184],[127.3509,36.719],[127.3522,36.7186],[127.353,36.7177],[127.3547,36.7174],[127.3616,36.7179],[127.3662,36.7155],[127.369,36.7151],[127.3725,36.714],[127.3754,36.7123],[127.3787,36.7132],[127.3816,36.7152],[127.387,36.7175],[127.39,36.7178],[127.394,36.7174],[127.3962,36.7165],[127.3997,36.7139],[127.4001,36.711],[127.4063,36.7087],[127.4072,36.7088],[127.4084,36.7101],[127.4105,36.7105],[127.4108,36.7089],[127.4089,36.707],[127.4086,36.7056],[127.4209,36.6963],[127.4207,36.6932],[127.4211,36.6927],[127.4254,36.6929],[127.4256,36.6892],[127.4279,36.6892],[127.4283,36.683]]]]}},{"type":"Feature","properties":{"gu":"흥덕구","name":"운천·신봉동"},"geometry":{"type":"MultiPolygon","coordinates":[[[[127.4716,36.6593],[127.4814,36.6466],[127.4734,36.6428],[127.4689,36.6428],[127.4662,36.6474],[127.4665,36.6488],[127.4647,36.6529],[127.4636,36.655],[127.462,36.656],[127.4638,36.6562],[127.4655,36.6573],[127.4646,36.6591],[127.4636,36.6601],[127.4644,36.6655],[127.465,36.6665],[127.4716,36.6593]]]]}},{"type":"Feature","properties":{"gu":"흥덕구","name":"복대1동"},"geometry":{"type":"MultiPolygon","coordinates":[[[[127.4318,36.6444],[127.4351,36.6443],[127.4391,36.6401],[127.4432,36.64],[127.4443,36.6391],[127.4443,36.6381],[127.4518,36.6381],[127.4517,36.6366],[127.4565,36.6364],[127.4563,36.6346],[127.4454,36.6339],[127.4411,36.6328],[127.4323,36.6327],[127.4284,36.6286],[127.4272,36.6286],[127.4273,36.6302],[127.4238,36.635],[127.4232,36.6371],[127.423,36.6387],[127.4248,36.6386],[127.4227,36.6462],[127.4262,36.646],[127.4318,36.6444]]]]}},{"type":"Feature","properties":{"gu":"흥덕구","name":"복대2동"},"geometry":{"type":"MultiPolygon","coordinates":[[[[127.4545,36.6326],[127.453,36.6326],[127.4504,36.6303],[127.4498,36.6263],[127.4472,36.6246],[127.4447,36.6243],[127.443,36.6234],[127.4381,36.6314],[127.4389,36.6327],[127.4481,36.6342],[127.4563,36.6346],[127.4545,36.6326]]]]}},{"type":"Feature","properties":{"gu":"흥덕구","name":"가경동"},"geometry":{"type":"MultiPolygon","coordinates":[[[[127.4389,36.6327],[127.4381,36.6316],[127.4384,36.6307],[127.4444,36.6216],[127.4443,36.6159],[127.4406,36.6126],[127.4329,36.6097],[127.4278,36.6104],[127.4252,36.6119],[127.4225,36.6168],[127.4232,36.6194],[127.4258,36.6229],[127.4277,36.6229],[127.4315,36.6241],[127.4284,36.6286],[127.4323,36.6327],[127.4389,36.6327]]]]}},{"type":"Feature","properties":{"gu":"흥덕구","name":"봉명1동"},"geometry":{"type":"MultiPolygon","coordinates":[[[[127.4689,36.6428],[127.4689,36.6399],[127.467,36.6399],[127.4669,36.6378],[127.4636,36.6382],[127.4617,36.6394],[127.4567,36.638],[127.4565,36.6364],[127.4517,36.6366],[127.4518,36.6381],[127.4535,36.6381],[127.4539,36.6434],[127.4689,36.6428]]]]}},{"type":"Feature","properties":{"gu":"흥덕구","name":"봉명2·송정동"},"geometry":{"type":"MultiPolygon","coordinates":[[[[127.4689,36.6428],[127.4539,36.6434],[127.4535,36.6381],[127.4443,36.6381],[127.4443,36.6391],[127.4432,36.64],[127.4391,36.6401],[127.4351,36.6443],[127.4318,36.6444],[127.4319,36.6477],[127.4341,36.6477],[127.4353,36.6494],[127.4354,36.6537],[127.4415,36.6538],[127.4453,36.6561],[127.4511,36.658],[127.4646,36.6591],[127.4655,36.6573],[127.4638,36.6562],[127.462,36.656],[127.4636,36.655],[127.4647,36.6529],[127.4665,36.6488],[127.4662,36.6474],[127.4689,36.6428]]]]}},{"type":"Feature","properties":{"gu":"흥덕구","name":"강서1동"},"geometry":{"type":"MultiPolygon","coordinates":[[[[127.4227,36.6462],[127.4248,36.6386],[127.423,36.6387],[127.4238,36.635],[127.4273,36.6302],[127.4272,36.6286],[127.4284,36.6286],[127.4315,36.6241],[127.4277,36.6229],[127.4258,36.6229],[127.4232,36.6194],[127.4225,36.6168],[127.4252,36.6119],[127.4278,36.6104],[127.4326,36.6096],[127.4377,36.6114],[127.4367,36.6103],[127.437,36.6083],[127.4366,36.6073],[127.4359,36.6064],[127.4342,36.6059],[127.4333,36.6028],[127.4342,36.6015],[127.4341,36.5994],[127.4273,36.5995],[127.4233,36.6001],[127.4199,36.5979],[127.4139,36.6033],[127.4115,36.6046],[127.4072,36.6003],[127.4063,36.5983],[127.401,36.596],[127.4002,36.5937],[127.3982,36.5907],[127.392,36.5858],[127.3902,36.5853],[127.3847,36.5865],[127.3839,36.5879],[127.3796,36.5877],[127.3765,36.5869],[127.3667,36.5936],[127.3662,36.5944],[127.3664,36.5974],[127.3687,36.6009],[127.3684,36.6042],[127.3689,36.6077],[127.3728,36.6087],[127.376,36.606],[127.3773,36.6057],[127.3784,36.6068],[127.3776,36.609],[127.3767,36.61],[127.3783,36.6141],[127.3782,36.6169],[127.3751,36.6233],[127.373,36.6252],[127.3731,36.6279],[127.3736,36.6288],[127.3805,36.629],[127.3822,36.6285],[127.3826,36.6276],[127.382,36.6266],[127.3827,36.6255],[127.388,36.6245],[127.3898,36.6247],[127.391,36.6255],[127.3937,36.6262],[127.4004,36.6265],[127.408,36.6297],[127.4065,36.6324],[127.4033,36.6322],[127.4013,36.6314],[127.4012,36.6304],[127.3988,36.6296],[127.3913,36.6303],[127.3894,36.631],[127.3905,36.6331],[127.3904,36.6368],[127.3898,36.6383],[127.3847,36.6432],[127.3837,36.6426],[127.3818,36.6429],[127.3785,36.6453],[127.3789,36.6464],[127.3769,36.6519],[127.3773,36.6537],[127.3768,36.6553],[127.3747,36.6565],[127.3744,36.6585],[127.38,36.6609],[127.3829,36.661],[127.3882,36.6595],[127.3916,36.661],[127.3946,36.6613],[127.3959,36.6625],[127.4045,36.6611],[127.4056,36.6605],[127.4066,36.6576],[127.408,36.6559],[127.4123,36.6517],[127.4171,36.6516],[127.4202,36.65],[127.4228,36.6472],[127.4227,36.6462]]]]}},{"type":"Feature","properties":{"gu":"흥덕구","name":"강서2동"},"geometry":{"type":"MultiPolygon","coordinates":[[[[127.463,36.6693],[127.465,36.6665],[127.4644,36.6655],[127.4636,36.6601],[127.4646,36.6591],[127.4511,36.658],[127.4453,36.6561],[127.4415,36.6538],[127.4354,36.6537],[127.4353,36.6494],[127.4341,36.6477],[127.4319,36.6477],[127.4318,36.6444],[127.4262,36.646],[127.4227,36.6462],[127.4228,36.6472],[127.4202,36.65],[127.4171,36.6516],[127.4123,36.6517],[127.408,36.6559],[127.4066,36.6576],[127.4056,36.6605],[127.4045,36.6611],[127.397,36.6625],[127.3959,36.6625],[127.3946,36.6613],[127.3954,36.6631],[127.3955,36.6664],[127.3973,36.6746],[127.3997,36.6779],[127.4016,36.6788],[127.405,36.6783],[127.4092,36.6793],[127.4145,36.6796],[127.4213,36.6821],[127.427,36.6831],[127.4293,36.6829],[127.4327,36.6814],[127.4338,36.6814],[127.4361,36.6825],[127.4441,36.6831],[127.4466,36.6853],[127.4486,36.6829],[127.4471,36.6817],[127.4476,36.6754],[127.4491,36.6749],[127.4563,36.6748],[127.463,36.6693]]]]}},{"type":"Feature","properties":{"gu":"청원구","name":"내수읍"},"geometry":{"type":"MultiPolygon","coordinates":[[[[127.6112,36.729],[127.6111,36.7277],[127.6133,36.7268],[127.6143,36.7253],[127.6154,36.7187],[127.618,36.7173],[127.6187,36.7164],[127.6188,36.7151],[127.6178,36.7075],[127.6172,36.7075],[127.6147,36.7051],[127.6145,36.7029],[127.6123,36.7001],[127.6067,36.6993],[127.6055,36.6982],[127.602,36.6981],[127.6005,36.6989],[127.5976,36.6978],[127.592,36.6909],[127.5924,36.69],[127.592,36.6886],[127.5908,36.6877],[127.5891,36.6877],[127.5866,36.6857],[127.5856,36.6837],[127.5823,36.6849],[127.5794,36.6844],[127.5704,36.6776],[127.5673,36.6744],[127.5555,36.674],[127.5517,36.6728],[127.5503,36.6731],[127.5492,36.6744],[127.5471,36.6715],[127.5436,36.669],[127.5369,36.6692],[127.5359,36.6688],[127.5327,36.6659],[127.5123,36.6742],[127.5059,36.6795],[127.5061,36.6802],[127.5037,36.6831],[127.4997,36.6845],[127.5,36.6891],[127.4967,36.6911],[127.4964,36.6917],[127.4968,36.6962],[127.4983,36.7017],[127.4974,36.7041],[127.4964,36.7056],[127.5006,36.707],[127.502,36.7115],[127.4996,36.7125],[127.4986,36.714],[127.5,36.7145],[127.5012,36.7168],[127.4996,36.7176],[127.4976,36.7177],[127.4949,36.7153],[127.4921,36.7157],[127.486,36.718],[127.4851,36.7189],[127.4868,36.7213],[127.4859,36.7236],[127.4864,36.7246],[127.489,36.7272],[127.4892,36.7289],[127.4902,36.73],[127.5016,36.7325],[127.5101,36.733],[127.512,36.733],[127.5164,36.7313],[127.5195,36.7313],[127.5283,36.7348],[127.5366,36.7329],[127.5394,36.7315],[127.5419,36.7292],[127.5453,36.728],[127.5471,36.7266],[127.547,36.7247],[127.5476,36.7237],[127.5533,36.7221],[127.5552,36.7222],[127.5665,36.7143],[127.5788,36.7173],[127.5799,36.7184],[127.58,36.7192],[127.5822,36.7212],[127.593,36.724],[127.5981,36.7241],[127.6027,36.7249],[127.6097,36.7278],[127.6112,36.729]]]]}},{"type":"Feature","properties":{"gu":"청원구","name":"오창읍"},"geometry":{"type":"MultiPolygon","coordinates":[[[[127.5013,36.7639],[127.5013,36.7607],[127.5003,36.7584],[127.4978,36.7566],[127.4941,36.7556],[127.492,36.7526],[127.492,36.75],[127.4916,36.7486],[127.4906,36.7477],[127.486,36.7454],[127.4835,36.743],[127.4829,36.7413],[127.483,36.7356],[127.4814,36.7287],[127.4775,36.7218],[127.4763,36.7164],[127.4749,36.7136],[127.4655,36.7081],[127.4624,36.7054],[127.4619,36.7039],[127.4617,36.6961],[127.4614,36.6957],[127.456,36.6938],[127.4522,36.6905],[127.4499,36.6901],[127.4458,36.6843],[127.4431,36.6829],[127.4361,36.6825],[127.4338,36.6814],[127.4327,36.6814],[127.4283,36.683],[127.4279,36.6892],[127.4256,36.6892],[127.4254,36.6929],[127.4211,36.6927],[127.4207,36.6932],[127.4209,36.6963],[127.4086,36.7056],[127.4089,36.707],[127.4108,36.7089],[127.4105,36.7105],[127.4084,36.7101],[127.4072,36.7088],[127.4063,36.7087],[127.4001,36.711],[127.3997,36.7139],[127.3962,36.7165],[127.394,36.7174],[127.39,36.7178],[127.387,36.7175],[127.3816,36.7152],[127.3787,36.7132],[127.3754,36.7123],[127.3725,36.714],[127.369,36.7151],[127.3662,36.7155],[127.3616,36.7179],[127.3547,36.7174],[127.353,36.7177],[127.3522,36.7186],[127.3509,36.719],[127.341,36.7184],[127.3385,36.7199],[127.3344,36.72],[127.3316,36.7206],[127.326,36.7232],[127.317,36.7248],[127.3197,36.727],[127.3255,36.7337],[127.3283,36.7346],[127.3297,36.7344],[127.3306,36.733],[127.3369,36.7294],[127.3393,36.7302],[127.3402,36.7318],[127.3412,36.7376],[127.3384,36.7375],[127.3374,36.7399],[127.3376,36.7433],[127.3372,36.7445],[127.334,36.747],[127.3336,36.7485],[127.3354,36.7511],[127.3356,36.7524],[127.3455,36.7539],[127.3472,36.7555],[127.349,36.7559],[127.3531,36.7559],[127.3561,36.7576],[127.3588,36.7607],[127.3694,36.7615],[127.3723,36.7582],[127.3851,36.7596],[127.3872,36.7595],[127.3878,36.7553],[127.3889,36.7532],[127.3927,36.7526],[127.3948,36.7509],[127.3951,36.749],[127.3969,36.7469],[127.4048,36.7449],[127.4045,36.7465],[127.4057,36.7501],[127.4083,36.752],[127.4112,36.7533],[127.4116,36.7542],[127.411,36.7557],[127.4121,36.7573],[127.4143,36.7571],[127.4153,36.7566],[127.4226,36.7581],[127.4246,36.7578],[127.4273,36.7569],[127.4272,36.756],[127.4255,36.7557],[127.4252,36.7547],[127.4271,36.7507],[127.4299,36.7507],[127.4386,36.7533],[127.4414,36.7523],[127.4419,36.7513],[127.4419,36.7502],[127.4439,36.7488],[127.4463,36.7482],[127.4483,36.7489],[127.4498,36.7495],[127.4496,36.7548],[127.4501,36.759],[127.4523,36.7621],[127.4545,36.7628],[127.4586,36.7661],[127.4603,36.7698],[127.4618,36.7702],[127.4675,36.7698],[127.4703,36.7689],[127.473,36.7694],[127.4752,36.7711],[127.4814,36.7741],[127.4808,36.7753],[127.4822,36.776],[127.4883,36.7751],[127.4908,36.7735],[127.4948,36.7776],[127.5005,36.7794],[127.502,36.7797],[127.5063,36.7783],[127.5093,36.776],[127.5106,36.7744],[127.5095,36.7704],[127.509,36.7695],[127.5072,36.7683],[127.5033,36.7666],[127.5013,36.7639]]]]}},{"type":"Feature","properties":{"gu":"청원구","name":"북이면"},"geometry":{"type":"MultiPolygon","coordinates":[[[[127.6112,36.729],[127.6097,36.7278],[127.6027,36.7249],[127.5981,36.7241],[127.593,36.724],[127.5822,36.7212],[127.58,36.7192],[127.5799,36.7184],[127.5788,36.7173],[127.5669,36.7143],[127.5653,36.7149],[127.5589,36.72],[127.5552,36.7222],[127.5533,36.7221],[127.5476,36.7237],[127.547,36.7247],[127.5471,36.7266],[127.5453,36.728],[127.5419,36.7292],[127.5394,36.7315],[127.5366,36.7329],[127.5283,36.7348],[127.5195,36.7313],[127.5164,36.7313],[127.512,36.733],[127.5101,36.733],[127.5016,36.7325],[127.4902,36.73],[127.4892,36.7289],[127.489,36.7272],[127.4864,36.7246],[127.4857,36.7232],[127.4837,36.722],[127.4775,36.7218],[127.4814,36.7287],[127.483,36.7356],[127.4829,36.7413],[127.4835,36.743],[127.486,36.7454],[127.4906,36.7477],[127.4916,36.7486],[127.492,36.75],[127.492,36.7526],[127.4941,36.7556],[127.4978,36.7566],[127.5003,36.7584],[127.5013,36.7607],[127.5013,36.7639],[127.5062,36.7655],[127.5113,36.768],[127.515,36.7679],[127.5178,36.769],[127.5218,36.7698],[127.5302,36.7701],[127.532,36.7717],[127.5412,36.7741],[127.5442,36.7736],[127.5498,36.7763],[127.5544,36.7778],[127.5604,36.7781],[127.5642,36.7796],[127.5663,36.7779],[127.5675,36.7749],[127.5677,36.773],[127.5687,36.7718],[127.5724,36.7702],[127.5753,36.7673],[127.5848,36.7646],[127.5887,36.7624],[127.589,36.7601],[127.5884,36.7571],[127.5902,36.7534],[127.5903,36.7486],[127.5929,36.7463],[127.5961,36.7446],[127.5983,36.7443],[127.6006,36.7457],[127.6042,36.7456],[127.6058,36.7438],[127.608,36.7398],[127.6085,36.7366],[127.6099,36.7355],[127.6099,36.7316],[127.6112,36.729]]]]}},{"type":"Feature","properties":{"gu":"청원구","name":"오근장동"},"geometry":{"type":"MultiPolygon","coordinates":[[[[127.5123,36.6742],[127.5087,36.6724],[127.4994,36.6698],[127.4894,36.6718],[127.4856,36.672],[127.4833,36.6715],[127.4834,36.679],[127.4831,36.6795],[127.4816,36.6792],[127.4776,36.6816],[127.4728,36.6778],[127.4707,36.6772],[127.469,36.6773],[127.466,36.6761],[127.4663,36.6738],[127.466,36.671],[127.463,36.6693],[127.4563,36.6748],[127.4491,36.6749],[127.4476,36.6754],[127.4471,36.6817],[127.4486,36.6829],[127.4466,36.6853],[127.4478,36.6876],[127.4499,36.6901],[127.4522,36.6905],[127.456,36.6938],[127.4617,36.6961],[127.4619,36.7039],[127.4624,36.7054],[127.4655,36.7081],[127.4749,36.7136],[127.4763,36.7164],[127.4775,36.7218],[127.4837,36.722],[127.4859,36.7236],[127.4868,36.7217],[127.4867,36.7208],[127.4851,36.7189],[127.486,36.718],[127.4921,36.7157],[127.4949,36.7153],[127.4976,36.7177],[127.4996,36.7176],[127.5012,36.7168],[127.5,36.7145],[127.4986,36.714],[127.4996,36.7125],[127.502,36.7115],[127.5006,36.707],[127.4964,36.7056],[127.4974,36.7041],[127.4983,36.7017],[127.4968,36.6962],[127.4964,36.6917],[127.4967,36.6911],[127.5,36.6891],[127.4997,36.6845],[127.5037,36.6831],[127.5061,36.6802],[127.5059,36.6795],[127.5123,36.6742]]]]}},{"type":"Feature","properties":{"gu":"청원구","name":"우암동"},"geometry":{"type":"MultiPolygon","coordinates":[[[[127.4889,36.6524],[127.4896,36.6519],[127.4978,36.6516],[127.4995,36.6531],[127.503,36.6534],[127.5045,36.6531],[127.5051,36.6502],[127.5009,36.6472],[127.4974,36.6481],[127.4935,36.6475],[127.4882,36.645],[127.4825,36.6447],[127.4806,36.6481],[127.4757,36.6542],[127.478,36.6553],[127.4838,36.6568],[127.4877,36.6523],[127.4889,36.6524]]]]}},{"type":"Feature","properties":{"gu":"청원구","name":"내덕1동"},"geometry":{"type":"MultiPolygon","coordinates":[[[[127.4889,36.6524],[127.4877,36.6523],[127.4838,36.6568],[127.478,36.6553],[127.4757,36.6542],[127.4716,36.6593],[127.4739,36.6595],[127.4793,36.6626],[127.4838,36.6636],[127.4866,36.665],[127.4889,36.6524]]]]}},{"type":"Feature","properties":{"gu":"청원구","name":"내덕2동"},"geometry":{"type":"MultiPolygon","coordinates":[[[[127.5045,36.6531],[127.503,36.6534],[127.4995,36.6531],[127.4978,36.6516],[127.489,36.6521],[127.4866,36.665],[127.4894,36.6653],[127.4999,36.6634],[127.5018,36.6625],[127.5011,36.6593],[127.5042,36.655],[127.5045,36.6531]]]]}},{"type":"Feature","properties":{"gu":"청원구","name":"율량·사천동"},"geometry":{"type":"MultiPolygon","coordinates":[[[[127.5123,36.6742],[127.5242,36.6691],[127.532,36.6664],[127.5337,36.6646],[127.5316,36.6633],[127.5278,36.6625],[127.525,36.6604],[127.5243,36.658],[127.5216,36.6565],[127.5143,36.6533],[127.5097,36.6532],[127.5084,36.6525],[127.5061,36.6501],[127.5051,36.6502],[127.5042,36.655],[127.5011,36.6593],[127.5018,36.6625],[127.4999,36.6634],[127.4881,36.6654],[127.4838,36.6636],[127.4793,36.6626],[127.4739,36.6595],[127.4716,36.6593],[127.465,36.6665],[127.463,36.6693],[127.466,36.671],[127.4663,36.6738],[127.466,36.6761],[127.469,36.6773],[127.4707,36.6772],[127.4728,36.6778],[127.4776,36.6816],[127.4816,36.6792],[127.4831,36.6795],[127.4834,36.679],[127.4833,36.6715],[127.4856,36.672],[127.4894,36.6718],[127.4994,36.6698],[127.5087,36.6724],[127.5123,36.6742]]]]}}]}